#dP2024  2 16 12  0  0.00000000      96 __u+U IGS20 EXT  IAC
## 2301 475200.00000000   900.00000000 60356 0.5000000000000
+  118   C06C07C08C09C10C11C12C13C14C16C19C20C21C22C23C24C25
+        C26C27C28C29C30C32C33C34C35C36C37C38C39C40C41C42C43
+        C44C45C46E02E03E04E05E07E08E09E10E11E12E13E14E15E18
+        E19E21E24E25E26E27E30E31E33E34E36G01G02G03G04G05G06
+        G07G08G09G10G11G12G13G14G15G16G17G18G19G20G21G22G23
+        G24G25G26G27G28G29G30G31G32J02J04R01R02R03R04R05R07
+        R08R09R11R12R13R14R15R16R17R18R19R20R21R22R24R26  0
++        11  9  8  9  8  9 14  9 10 11  9  7  8  9  8 10  8
++         8  8  7  8  9  7  9  9  9  9  8 10 10  9  9  9  9
++         9  8  8  7  8 10  9  7  8 10  7  7  6  7  7  7  7
++         9  7  7  6  8  7  6  8  8  8  8  7  7  7  8  6  7
++         7  7  7  7  6  7  7  7  7  7  8  6  8  6  7  7  8
++         7  6  6  7  7  7  7  7  7  9  9  8  9  8  7  8  8
++         8  9  7  8  9  8  6  7  9  9  7  9  7  9  7  9  0
%c M  cc GPS ccc cccc cccc cccc cccc ccccc ccccc ccccc ccccc
%c cc cc ccc ccc cccc cccc cccc cccc ccccc ccccc ccccc ccccc
%f  0.0000000  0.000000000  0.00000000000  0.000000000000000
%f  0.0000000  0.000000000  0.00000000000  0.000000000000000
%i    0    0    0    0      0      0      0      0         0
%i    0    0    0    0      0      0      0      0         0
/* IAC                                ULTRA-RAPID PREDICTION
/* S/V CLOCKS ARE ALIGNED TO GNSS TIME                      
/* G:C1WC2W R:C1PC2P E:C1XC5X C:C2IC6I J:C1CC2S             
/* PCV:IGS20_2290 OL/AL:FES2004  NONE     YN ORB:CoN CLK:CoN
*  2024 02 17  8 15  0.00000000
PC06  -4951.678396  38548.702220 -15941.875639    115.572330
PC07  -9211.172789  26209.452268  31783.311029   -815.077702
PC08 -20303.011943  32148.533654 -18440.532269     31.747926
PC09    229.452691  41158.977763  -6987.753342   -501.577160
PC10   -414.817782  27996.761673  31900.204476     81.596502
PC11 -17815.228246 -18298.845363  11313.895436    414.959021
PC12  -8307.751745 -25697.207362  -6998.958526    767.906977
PC13 -12289.003798  32172.263956 -24339.781208    418.066529
PC14 -23394.634256  -8730.159932  12416.090008    209.207001
PC16  -6071.330280  37336.848097 -17976.415146   -344.714387
PC19  27529.210010   2851.850113  -3648.592571   -926.084960
PC20  17237.021875  12458.429056 -18069.103062   -171.026686
PC21   4609.186837 -15381.879187  22844.344374   -962.013684
PC22  22636.636446  -8911.143563  13697.768446   -106.683731
PC23 -19287.716953  16954.951145 -10934.616310   -780.620957
PC24  -5560.676788 -18781.116509 -19890.173162    892.248490
PC25 -17683.998112   -325.599801 -21604.602853    328.190084
PC26   8706.259287 -25583.067366  -6911.240570   -250.404960
PC27   1519.449697  23808.012002  14448.371433    272.364543
PC28 -11422.827577  11916.753089  22505.394336    207.232871
PC29  19774.830768   9112.173352 -17455.622838    242.907687
PC30  15004.529068  23486.673768  -1113.559875    -26.263861
PC32  -4553.738946  15404.695604 -22798.623260   -568.913982
PC33 -27499.000706  -2773.958575   3793.606158   -949.457002
PC34 -15803.301501 -22869.776446   2588.164003    371.153108
PC35  11090.526324 -12316.820712 -22467.330630    431.664161
PC36  17459.289165   1286.083424  21742.584590    -11.998043
PC37  -9647.659983  25391.571950   6460.554878   -936.895226
PC38 -24548.152325  32791.582936 -10215.784444    137.327069
PC39  -8773.890563  33382.914876 -23999.246380     -7.186344
PC40 -13996.208028  19556.373384  34594.418079    -56.884025
PC41 -23150.046794   8549.751270 -12958.101895   -892.062966
PC42 -15641.394086 -13116.014052  19061.393456   -453.689470
PC43 -19912.049700 -10037.798107  16784.221399     60.747652
PC44  -2210.251040 -23741.234005 -14540.605248    387.028867
PC45  19218.284968 -17100.021360  10775.682783    -70.651918
PC46   6096.815313  18105.114751  20341.577566   -124.543015
PE02  20114.744224   6309.436688  20758.620054    104.089096
PE03  24891.502142  15991.257631   1083.804603    -94.395477
PE04 -23444.926992   -681.386815 -18048.099146   -329.260393
PE05  11791.320418  21741.433214 -16255.950903   4720.837319
PE07   8708.218791 -14573.365966  24254.480981   -104.223755
PE08  23718.845990   1361.356940  17663.876854   -225.211853
PE09  -8720.669469  14388.645492 -24349.486077   -339.112525
PE10 -13745.878027  17646.565276  19384.018616   -602.600006
PE11  -9165.220851  25829.523253  11150.246763   3241.711763
PE12 -15950.377712   7664.172225  23725.080667   -910.024668
PE13   9452.658090 -25465.872870 -11769.489560    -20.216435
PE14 -13752.438536 -19254.048650  -8631.532205     41.797703
PE15  15917.352251  -7096.903143 -23917.480033    -86.286719
PE18  26177.581910  17829.536045  -2076.661030    336.324341
PE19 -23967.454883 -17341.498769   1075.237204   -598.802343
PE21  -1653.979808 -17464.277987 -23850.249395   -579.458031
PE24 -18994.688974  18791.619448  12742.490638   -602.920258
PE25   1197.533027  17611.616007  23757.934140      0.995214
PE26  -2871.125590 -28461.888134   7629.735575    371.225345
PE27  18583.601329 -18931.999657 -13123.313824   -276.841335
PE30  27671.018593  -8976.407747   5403.989453     -5.797333
PE31 -27642.998926   9221.639468  -5223.692949    -16.200222
PE33 -12747.023567 -15721.655448  21607.362225      7.717605
PE34  12987.896969  15141.314080 -21867.362448    -95.111159
PE36   2415.583123  28640.549110  -7034.787302   -187.117710
PG01 -11806.679931  17211.701308  15888.312214    169.891916
PG02 -14185.601800   9172.362824  20930.006590   -484.147933
PG03 -23553.111380  12131.036441   -498.760452    198.510302
PG04 -17668.709904   4006.543872 -19451.237731    293.755615
PG05  23577.423846  -3969.035935 -11834.336973   -162.136422
PG06   6366.931397  22669.011329 -12108.546529    403.788218
PG07  -5495.826355  24991.361652  -5623.670482    -63.937789
PG08 -22826.013878  -2724.262757  13567.668524   -167.424827
PG09  -5513.820955  14491.528278 -21642.189156     94.965773
PG10  -2386.248179 -15129.632230  21865.297208      0.806229
PG11  12306.075555  12888.128196 -19684.877820   -578.620387
PG12  24397.756906 -10404.397084   -258.028052   -478.804431
PG13  22160.295511  12704.405581   7483.092469    626.291826
PG14  -1958.447342  17048.619473  20247.865980    327.936349
PG15  23060.744829    184.526325  12862.106673    128.570388
PG16 -21459.920198  -3399.957495 -15915.365775   -360.821852
PG17   6943.125735  19609.120191  16849.803568    716.717461
PG18   5339.614577 -25427.767651  -4997.492595   -557.404034
PG19  15260.068630  20135.562686   8581.269714    441.834094
PG20  16279.962606   5706.639380 -20091.096297    387.186615
PG21 -15272.485459   2465.439691  22008.433092    134.625374
PG22   5772.595470  14273.605425  22069.089230     29.855171
PG23  10703.468444 -18112.504859  16118.583990    157.972019
PG24  14844.894394  -6979.117879  20408.827529   -433.081495
PG25  17885.019728 -17098.862315  -9614.377672    488.834593
PG26 -13275.537373 -10114.198786 -20867.483279    189.321373
PG27 -23289.068944 -12932.437482   2624.243218     -4.762568
PG28  -5975.563346 -24118.444894  -9409.091442   -133.887892
PG29   8129.774888 -12614.493609 -21960.233371   -606.812253
PG30   1716.671087  25999.618948   4470.227480   -431.486666
PG31 -10854.481389 -17083.756236 -17195.621537   -227.796442
PG32 -11447.874208 -19376.170778  14467.520395   -612.067808
PJ02 -31737.782539  26075.772498  14627.318475     -2.064868
PJ04 -29072.086455  21825.792768 -16375.222873     50.894373
PR01  23564.847948   7191.841878  -6625.678367     77.397440
PR02  23009.091160   -435.189991  10978.664212    -22.492712
PR03   9474.289343  -8691.377509  22070.641566     94.682271
PR04  -8775.816027 -11723.095546  20923.272883    223.795285
PR05 -22410.453244  -8755.415087   8525.292699    127.033623
PR07  -8702.922057   8906.297941 -22225.361623     76.012241
PR08   9086.042927  11716.366035 -20682.505431    -74.452488
PR09 -18283.026667  12239.627022 -12824.078149    170.464609
PR11  -4013.499913  17779.455972  17842.460511     34.066578
PR12  11192.828309   3669.450050  22640.598770     36.834624
PR13  18018.221132 -10292.901591  14809.424859    -44.431482
PR14  14833.721478 -20383.545899  -3946.572216     26.074917
PR15   2894.516241 -17097.813655 -18697.042946     82.126369
PR16 -10895.937042  -3780.698407 -22746.820111     23.342139
PR17   2083.613670 -18643.352174 -17256.845283     61.915744
PR18  -6695.156707 -24517.490822  -2492.131053    127.818424
PR19 -11249.621944 -19366.602285  12215.050571   -266.147629
PR20 -10562.186807    667.673760  23222.185786   -108.404409
PR21  -2020.535278  18823.408288  17108.246046    -77.649844
PR22   6437.086050  24631.549797   1464.478974    108.505639
PR24  10778.747068  -1906.669711 -23020.975725    -44.254308
PR26   8202.606201  11676.783650 -21124.428372   -197.954618
EOF
